[{"OBJECT_NAME":"STARLINK-5550","OBJECT_ID":"2023-058AW","EPOCH":"2025-09-10T06:06:41.011776","MEAN_MOTION":15.01283318,"ECCENTRICITY":0.0001625,"INCLINATION":97.6041,"RA_OF_ASC_NODE":253.6436,"ARG_OF_PERICENTER":105.7787,"MEAN_ANOMALY":254.3617,"EPHEMERIS_TYPE":0,"CLASSIFICATION_TYPE":"U","NORAD_CAT_ID":56361,"ELEMENT_SET_NO":999,"REV_AT_EPOCH":13106,"BSTAR":-0.00039369492,"MEAN_MOTION_DOT":-5.114e-5,"MEAN_MOTION_DDOT":0},{"OBJECT_NAME":"STARLINK-5972","OBJECT_ID":"2023-058AX","EPOCH":"2025-09-10T06:04:02.948160","MEAN_MOTION":15.01258267,"ECCENTRICITY":0.00025547,"INCLINATION":97.6052,"RA_OF_ASC_NODE":253.6458,"ARG_OF_PERICENTER":122.6156,"MEAN_ANOMALY":237.5315,"EPHEMERIS_TYPE":0,"CLASSIFICATION_TYPE":"U","NORAD_CAT_ID":56362,"ELEMENT_SET_NO":999,"REV_AT_EPOCH":13106,"BSTAR":-0.00011095334,"MEAN_MOTION_DOT":-1.483e-5,"MEAN_MOTION_DDOT":0},{"OBJECT_NAME":"STARLINK-6156","OBJECT_ID":"2023-061A","EPOCH":"2025-09-09T06:45:00.866592","MEAN_MOTION":15.02537233,"ECCENTRICITY":0.00012286,"INCLINATION":43.0016,"RA_OF_ASC_NODE":103.4063,"ARG_OF_PERICENTER":270.2025,"MEAN_ANOMALY":89.8676,"EPHEMERIS_TYPE":0,"CLASSIFICATION_TYPE":"U","NORAD_CAT_ID":56374,"ELEMENT_SET_NO":999,"REV_AT_EPOCH":13056,"BSTAR":7.136678e-6,"MEAN_MOTION_DOT":-1.07e-6,"MEAN_MOTION_DDOT":0},{"OBJECT_NAME":"STARLINK-6158","OBJECT_ID":"2023-061B","EPOCH":"2025-09-10T06:32:56.774112","MEAN_MOTION":15.02534006,"ECCENTRICITY":0.00011912,"INCLINATION":43.0038,"RA_OF_ASC_NODE":97.9433,"ARG_OF_PERICENTER":274.8929,"MEAN_ANOMALY":85.1777,"EPHEMERIS_TYPE":0,"CLASSIFICATION_TYPE":"U","NORAD_CAT_ID":56375,"ELEMENT_SET_NO":999,"REV_AT_EPOCH":12961,"BSTAR":6.4427436e-5,"MEAN_MOTION_DOT":6.67e-6,"MEAN_MOTION_DDOT":0},{"OBJECT_NAME":"STARLINK-6188","OBJECT_ID":"2023-061C","EPOCH":"2025-09-10T06:02:34.659456","MEAN_MOTION":15.02533298,"ECCENTRICITY":0.00010876,"INCLINATION":43.0035,"RA_OF_ASC_NODE":97.7834,"ARG_OF_PERICENTER":273.7291,"MEAN_ANOMALY":86.3427,"EPHEMERIS_TYPE":0,"CLASSIFICATION_TYPE":"U","NORAD_CAT_ID":56376,"ELEMENT_SET_NO":999,"REV_AT_EPOCH":12961,"BSTAR":5.13271e-6,"MEAN_MOTION_DOT":-1.34e-6,"MEAN_MOTION_DDOT":0},{"OBJECT_NAME":"STARLINK-6189","OBJECT_ID":"2023-061D","EPOCH":"2025-09-10T06:28:08.776992","MEAN_MOTION":15.02534237,"ECCENTRICITY":0.00012768,"INCLINATION":43.0041,"RA_OF_ASC_NODE":97.9173,"ARG_OF_PERICENTER":274.1992,"MEAN_ANOMALY":85.8705,"EPHEMERIS_TYPE":0,"CLASSIFICATION_TYPE":"U","NORAD_CAT_ID":56377,"ELEMENT_SET_NO":999,"REV_AT_EPOCH":12961,"BSTAR":2.0230938e-5,"MEAN_MOTION_DOT":7.0e-7,"MEAN_MOTION_DDOT":0},{"OBJECT_NAME":"STARLINK-6191","OBJECT_ID":"2023-061E","EPOCH":"2025-09-10T06:34:32.238336","MEAN_MOTION":15.02537159,"ECCENTRICITY":0.00012675,"INCLINATION":43.0034,"RA_OF_ASC_NODE":97.9435,"ARG_OF_PERICENTER":276.7326,"MEAN_ANOMALY":83.3372,"EPHEMERIS_TYPE":0,"CLASSIFICATION_TYPE":"U","NORAD_CAT_ID":56378,"ELEMENT_SET_NO":999,"REV_AT_EPOCH":12961,"BSTAR":7.7237058e-5,"MEAN_MOTION_DOT":8.4e-6,"MEAN_MOTION_DDOT":0},{"OBJECT_NAME":"STARLINK-6157","OBJECT_ID":"2023-061F","EPOCH":"2025-09-10T06:12:10.836000","MEAN_MOTION":15.02544304,"ECCENTRICITY":0.00019819,"INCLINATION":43.0028,"RA_OF_ASC_NODE":97.8335,"ARG_OF_PERICENTER":264.113,"MEAN_ANOMALY":95.9486,"EPHEMERIS_TYPE":0,"CLASSIFICATION_TYPE":"U","NORAD_CAT_ID":56379,"ELEMENT_SET_NO":999,"REV_AT_EPOCH":13071,"BSTAR":-0.000247308,"MEAN_MOTION_DOT":-3.544e-5,"MEAN_MOTION_DDOT":0},{"OBJECT_NAME":"STARLINK-6159","OBJECT_ID":"2023-061H","EPOCH":"2025-09-10T06:21:45.320832","MEAN_MOTION":15.02536246,"ECCENTRICITY":0.00013937,"INCLINATION":43.0036,"RA_OF_ASC_NODE":97.8835,"ARG_OF_PERICENTER":274.0204,"MEAN_ANOMALY":86.0479,"EPHEMERIS_TYPE":0,"CLASSIFICATION_TYPE":"U","NORAD_CAT_ID":56381,"ELEMENT_SET_NO":999,"REV_AT_EPOCH":12961,"BSTAR":0.00011180386,"MEAN_MOTION_DOT":1.307e-5,"MEAN_MOTION_DDOT":0},{"OBJECT_NAME":"STARLINK-6160","OBJECT_ID":"2023-061J","EPOCH":"2025-09-10T06:04:10.173792","MEAN_MOTION":15.02538746,"ECCENTRICITY":0.00012584,"INCLINATION":43.0041,"RA_OF_ASC_NODE":97.7867,"ARG_OF_PERICENTER":271.0645,"MEAN_ANOMALY":89.0053,"EPHEMERIS_TYPE":0,"CLASSIFICATION_TYPE":"U","NORAD_CAT_ID":56382,"ELEMENT_SET_NO":999,"REV_AT_EPOCH":12961,"BSTAR":8.4170059e-5,"MEAN_MOTION_DOT":9.34e-6,"MEAN_MOTION_DDOT":0},{"OBJECT_NAME":"STARLINK-6166","OBJECT_ID":"2023-061K","EPOCH":"2025-09-10T06:07:23.391840","MEAN_MOTION":15.02527703,"ECCENTRICITY":0.00015389,"INCLINATION":43.0062,"RA_OF_ASC_NODE":97.8027,"ARG_OF_PERICENTER":277.4532,"MEAN_ANOMALY":82.6135,"EPHEMERIS_TYPE":0,"CLASSIFICATION_TYPE":"U","NORAD_CAT_ID":56383,"ELEMENT_SET_NO":999,"REV_AT_EPOCH":12961,"BSTAR":8.7769449e-5,"MEAN_MOTION_DOT":9.82e-6,"MEAN_MOTION_DDOT":0},{"OBJECT_NAME":"STARLINK-6153","OBJECT_ID":"2023-061L","EPOCH":"2025-09-09T23:30:04.388544","MEAN_MOTION":15.02536759,"ECCENTRICITY":0.00013761,"INCLINATION":43.0029,"RA_OF_ASC_NODE":99.1747,"ARG_OF_PERICENTER":270.534,"MEAN_ANOMALY":89.5345,"EPHEMERIS_TYPE":0,"CLASSIFICATION_TYPE":"U","NORAD_CAT_ID":56384,"ELEMENT_SET_NO":999,"REV_AT_EPOCH":12957,"BSTAR":4.0183629e-5,"MEAN_MOTION_DOT":3.39e-6,"MEAN_MOTION_DDOT":0},{"OBJECT_NAME":"STARLINK-6173","OBJECT_ID":"2023-061M","EPOCH":"2025-09-09T23:34:51.926880","MEAN_MOTION":15.02538302,"ECCENTRICITY":0.00010877,"INCLINATION":43.0038,"RA_OF_ASC_NODE":99.2015,"ARG_OF_PERICENTER":271.5484,"MEAN_ANOMALY":88.5234,"EPHEMERIS_TYPE":0,"CLASSIFICATION_TYPE":"U","NORAD_CAT_ID":56385,"ELEMENT_SET_NO":999,"REV_AT_EPOCH":12957,"BSTAR":5.5978503e-5,"MEAN_MOTION_DOT":5.53e-6,"MEAN_MOTION_DDOT":0},{"OBJECT_NAME":"STARLINK-5836","OBJECT_ID":"2023-061N","EPOCH":"2025-09-09T23:20:28.846176","MEAN_MOTION":15.02535938,"ECCENTRICITY":0.00015016,"INCLINATION":43.0033,"RA_OF_ASC_NODE":99.1218,"ARG_OF_PERICENTER":264.2068,"MEAN_ANOMALY":95.8603,"EPHEMERIS_TYPE":0,"CLASSIFICATION_TYPE":"U","NORAD_CAT_ID":56386,"ELEMENT_SET_NO":999,"REV_AT_EPOCH":12957,"BSTAR":0.00010396237,"MEAN_MOTION_DOT":1.201e-5,"MEAN_MOTION_DDOT":0},{"OBJECT_NAME":"STARLINK-6178","OBJECT_ID":"2023-061P","EPOCH":"2025-09-10T07:04:44.512896","MEAN_MOTION":15.02540859,"ECCENTRICITY":0.00012161,"INCLINATION":43.0009,"RA_OF_ASC_NODE":97.2446,"ARG_OF_PERICENTER":269.0133,"MEAN_ANOMALY":91.057,"EPHEMERIS_TYPE":0,"CLASSIFICATION_TYPE":"U","NORAD_CAT_ID":56387,"ELEMENT_SET_NO":999,"REV_AT_EPOCH":12962,"BSTAR":-5.3471115e-5,"MEAN_MOTION_DOT":-9.26e-6,"MEAN_MOTION_DDOT":0},{"OBJECT_NAME":"STARLINK-6176","OBJECT_ID":"2023-061Q","EPOCH":"2025-09-10T06:26:32.733888","MEAN_MOTION":15.02533154,"ECCENTRICITY":0.00012356,"INCLINATION":43.0041,"RA_OF_ASC_NODE":97.893,"ARG_OF_PERICENTER":277.2908,"MEAN_ANOMALY":82.7794,"EPHEMERIS_TYPE":0,"CLASSIFICATION_TYPE":"U","NORAD_CAT_ID":56388,"ELEMENT_SET_NO":999,"REV_AT_EPOCH":12961,"BSTAR":-1.2456386e-5,"MEAN_MOTION_DOT":-3.72e-6,"MEAN_MOTION_DDOT":0}]
