STARLINK-5550           
1 56361U 23058AW  25253.25464134 -.00005114  00000+0 -39369-3 0  9990
2 56361  97.6041 253.6436 0001625 105.7787 254.3617 15.01283318131069
STARLINK-5972           
1 56362U 23058AX  25253.25281190 -.00001483  00000+0 -11095-3 0  9991
2 56362  97.6052 253.6458 0002554 122.6156 237.5315 15.01258267131069
STARLINK-6156           
1 56374U 23061A   25252.28126003 -.00000107  00000+0  71367-5 0  9992
2 56374  43.0016 103.4063 0001228 270.2025  89.8676 15.02537233130569
STARLINK-6158           
1 56375U 23061B   25253.27287933  .00000667  00000+0  64427-4 0  9991
2 56375  43.0038  97.9433 0001191 274.8929  85.1777 15.02534006129614
STARLINK-6188           
1 56376U 23061C   25253.25179004 -.00000134  00000+0  51327-5 0  9995
2 56376  43.0035  97.7834 0001087 273.7291  86.3427 15.02533298129616
STARLINK-6189           
1 56377U 23061D   25253.26954603  .00000070  00000+0  20231-4 0  9990
2 56377  43.0041  97.9173 0001276 274.1992  85.8705 15.02534237129612
STARLINK-6191           
1 56378U 23061E   25253.27398424  .00000840  00000+0  77237-4 0  9998
2 56378  43.0034  97.9435 0001267 276.7326  83.3372 15.02537159129614
STARLINK-6157           
1 56379U 23061F   25253.25845875 -.00003544  00000+0 -24731-3 0  9990
2 56379  43.0028  97.8335 0001981 264.1130  95.9486 15.02544304130711
STARLINK-6159           
1 56381U 23061H   25253.26510788  .00001307  00000+0  11180-3 0  9993
2 56381  43.0036  97.8835 0001393 274.0204  86.0479 15.02536246129613
STARLINK-6160           
1 56382U 23061J   25253.25289553  .00000934  00000+0  84170-4 0  9991
2 56382  43.0041  97.7867 0001258 271.0645  89.0053 15.02538746129618
STARLINK-6166           
1 56383U 23061K   25253.25513185  .00000982  00000+0  87769-4 0  9993
2 56383  43.0062  97.8027 0001538 277.4532  82.6135 15.02527703129618
STARLINK-6153           
1 56384U 23061L   25252.97921746  .00000339  00000+0  40184-4 0  9994
2 56384  43.0029  99.1747 0001376 270.5340  89.5345 15.02536759129572
STARLINK-6173           
1 56385U 23061M   25252.98254545  .00000553  00000+0  55979-4 0  9998
2 56385  43.0038  99.2015 0001087 271.5484  88.5234 15.02538302129573
STARLINK-5836           
1 56386U 23061N   25252.97255609  .00001201  00000+0  10396-3 0  9994
2 56386  43.0033  99.1218 0001501 264.2068  95.8603 15.02535938129574
STARLINK-6178           
1 56387U 23061P   25253.29495964 -.00000926  00000+0 -53471-4 0  9998
2 56387  43.0009  97.2446 0001216 269.0133  91.0570 15.02540859129624
STARLINK-6176           
1 56388U 23061Q   25253.26843442 -.00000372  00000+0 -12456-4 0  9997
2 56388  43.0041  97.8930 0001235 277.2908  82.7794 15.02533154129611
